ONEWEB-0320             
1 49190U 21083E   25098.90883413  .00000064  00000+0  12997-3 0  9997
2 49190  87.9105  61.7919 0001936  83.8195 276.3158 13.18685554172740
ONEWEB-0321             
1 49191U 21083F   25098.96299823 -.00000006  00000+0 -45830-4 0  9991
2 49191  87.9329   0.8792 0001708  69.1671 290.9645 13.20768722179512
ONEWEB-0322             
1 49192U 21083G   25099.09546562 -.00000133  00000+0 -39957-3 0  9995
2 49192  87.8971  46.5233 0001769  68.2624 291.8694 13.13471467175224
ONEWEB-0324             
1 49193U 21083H   25098.59110147  .00000082  00000+0  17509-3 0  9996
2 49193  87.9103  61.8348 0001825  89.4450 270.6891 13.18686011172729
ONEWEB-0325             
1 49194U 21083J   25098.89934370  .00000078  00000+0  16627-3 0  9997
2 49194  87.9104  61.7907 0001931  80.3682 279.7668 13.18686038172772
ONEWEB-0326             
1 49195U 21083K   25098.91368441  .00000075  00000+0  15650-3 0  9993
2 49195  87.9105  61.7796 0002262  92.1239 268.0152 13.18683775172760
ONEWEB-0327             
1 49196U 21083L   25098.91343276  .00000062  00000+0  12456-3 0  9990
2 49196  87.9105  61.8075 0002246  88.4602 271.6788 13.18687143172786
ONEWEB-0328             
1 49197U 21083M   25098.85678357  .00000104  00000+0  25023-3 0  9996
2 49197  87.8960  46.5229 0001803  82.8566 277.2768 13.13469390173880
